NUSAT-48 (HENRIETTA LE*)
1 60498U 24149AG  26068.80506098  .00012988  00000+0  45212-3 0  9999
2 60498  97.3923 150.8264 0002754 263.3026  96.7901 15.29812597 86946
STARLINK-33714          
1 63581U 25076N   26068.10921183  .00036706  00000+0  13362-2 0  9998
2 63581  43.0030 324.8001 0001873 263.2654  96.7985 15.27592859 51744
